{"type": "FeatureCollection", "features": [ {"type": "Feature", "properties": {"norad_id": 34464, "name": "COSMOS 2251 DEB", "group": "cosmos-2251-debris", "lat": -61.6376788128144, "lon": 67.69579346907855, "alt_km": 487.458107175853, "timestamp": "2025-12-02T13:52:17.655723+00:00", "meta": {"OBJECT_NAME": "COSMOS 2251 DEB", "OBJECT_ID": "1993-036TH", "EPOCH": "2025-12-01T17:41:19.975200", "MEAN_MOTION": 15.2460297, "ECCENTRICITY": 0.00176693, "INCLINATION": 73.9897, "RA_OF_ASC_NODE": 101.6087, "ARG_OF_PERICENTER": 270.4716, "MEAN_ANOMALY": 89.4459, "EPHEMERIS_TYPE": 0, "CLASSIFICATION_TYPE": "U", "NORAD_CAT_ID": 34464, "ELEMENT_SET_NO": 999, "REV_AT_EPOCH": 89672, "BSTAR": 0.0029264417, "MEAN_MOTION_DOT": 0.00073186, "MEAN_MOTION_DDOT": 0}, "tle": {"line1": "1 34464U 93036TH  25335.73703675  .00073186  00000+0  29264-2 0  9997", "line2": "2 34464  73.9897 101.6087 0017669 270.4716  89.4459 15.24602970896722"}}, "geometry": {"type": "Point", "coordinates": [67.69579346907855, -61.6376788128144]}}, {"type": "Feature", "properties": {"norad_id": 34468, "name": "COSMOS 2251 DEB", "group": "cosmos-2251-debris", "lat": 38.095306407030755, "lon": -56.74856605487864, "alt_km": 773.6771251002665, "timestamp": "2025-12-02T13:52:17.655733+00:00", "meta": {"OBJECT_NAME": "COSMOS 2251 DEB", "OBJECT_ID": "1993-036TM", "EPOCH": "2025-12-02T04:55:39.940032", "MEAN_MOTION": 14.47580591, "ECCENTRICITY": 0.00762557, "INCLINATION": 74.0113, "RA_OF_ASC_NODE": 136.9392, "ARG_OF_PERICENTER": 283.9873, "MEAN_ANOMALY": 75.2815, "EPHEMERIS_TYPE": 0, "CLASSIFICATION_TYPE": "U", "NORAD_CAT_ID": 34468, "ELEMENT_SET_NO": 999, "REV_AT_EPOCH": 88309, "BSTAR": 0.00039641008, "MEAN_MOTION_DOT": 1.484e-05, "MEAN_MOTION_DDOT": 0}, "tle": {"line1": "1 34468U 93036TM  25336.20532338  .00001484  00000+0  39641-3 0  9993", "line2": "2 34468  74.0113 136.9392 0076255 283.9873  75.2815 14.47580591883091"}}, "geometry": {"type": "Point", "coordinates": [-56.74856605487864, 38.095306407030755]}}, {"type": "Feature", "properties": {"norad_id": 34472, "name": "COSMOS 2251 DEB", "group": "cosmos-2251-debris", "lat": 66.87320750170721, "lon": -107.05394959941538, "alt_km": 1176.1446057959238, "timestamp": "2025-12-02T13:52:17.655743+00:00", "meta": {"OBJECT_NAME": "COSMOS 2251 DEB", "OBJECT_ID": "1993-036TR", "EPOCH": "2025-11-30T08:45:33.274080", "MEAN_MOTION": 13.70299802, "ECCENTRICITY": 0.03272305, "INCLINATION": 74.0853, "RA_OF_ASC_NODE": 118.499, "ARG_OF_PERICENTER": 252.162, "MEAN_ANOMALY": 104.3557, "EPHEMERIS_TYPE": 0, "CLASSIFICATION_TYPE": "U", "NORAD_CAT_ID": 34472, "ELEMENT_SET_NO": 999, "REV_AT_EPOCH": 83557, "BSTAR": 0.0011470938, "MEAN_MOTION_DOT": 1.453e-05, "MEAN_MOTION_DDOT": 0}, "tle": {"line1": "1 34472U 93036TR  25334.36496845  .00001453  00000+0  11471-2 0  9991", "line2": "2 34472  74.0853 118.4990 0327230 252.1620 104.3557 13.70299802835570"}}, "geometry": {"type": "Point", "coordinates": [-107.05394959941538, 66.87320750170721]}}, {"type": "Feature", "properties": {"norad_id": 34474, "name": "COSMOS 2251 DEB", "group": "cosmos-2251-debris", "lat": 3.738309807789611, "lon": -15.013793667513795, "alt_km": 792.7969635688032, "timestamp": "2025-12-02T13:52:17.655753+00:00", "meta": {"OBJECT_NAME": "COSMOS 2251 DEB", "OBJECT_ID": "1993-036TT", "EPOCH": "2025-12-02T02:12:14.270112", "MEAN_MOTION": 14.0630808, "ECCENTRICITY": 0.01977108, "INCLINATION": 74.0785, "RA_OF_ASC_NODE": 344.7657, "ARG_OF_PERICENTER": 61.3569, "MEAN_ANOMALY": 4.2415, "EPHEMERIS_TYPE": 0, "CLASSIFICATION_TYPE": "U", "NORAD_CAT_ID": 34474, "ELEMENT_SET_NO": 999, "REV_AT_EPOCH": 85359, "BSTAR": 0.0017120979, "MEAN_MOTION_DOT": 3.347e-05, "MEAN_MOTION_DDOT": 0}, "tle": {"line1": "1 34474U 93036TT  25336.09183183  .00003347  00000+0  17121-2 0  9995", "line2": "2 34474  74.0785 344.7657 0197710  61.3569   4.2415 14.06308080853592"}}, "geometry": {"type": "Point", "coordinates": [-15.013793667513795, 3.738309807789611]}}, {"type": "Feature", "properties": {"norad_id": 34476, "name": "COSMOS 2251 DEB", "group": "cosmos-2251-debris", "lat": 29.483336531408472, "lon": -89.70188012412227, "alt_km": 1186.991828089368, "timestamp": "2025-12-02T13:52:17.655763+00:00", "meta": {"OBJECT_NAME": "COSMOS 2251 DEB", "OBJECT_ID": "1993-036TV", "EPOCH": "2025-12-01T09:20:26.803104", "MEAN_MOTION": 13.81864816, "ECCENTRICITY": 0.0318741, "INCLINATION": 74.0058, "RA_OF_ASC_NODE": 101.6327, "ARG_OF_PERICENTER": 323.7354, "MEAN_ANOMALY": 34.2529, "EPHEMERIS_TYPE": 0, "CLASSIFICATION_TYPE": "U", "NORAD_CAT_ID": 34476, "ELEMENT_SET_NO": 999, "REV_AT_EPOCH": 83481, "BSTAR": 0.0030092445, "MEAN_MOTION_DOT": 4.729e-05, "MEAN_MOTION_DDOT": 0}, "tle": {"line1": "1 34476U 93036TV  25335.38919911  .00004729  00000+0  30092-2 0  9991", "line2": "2 34476  74.0058 101.6327 0318741 323.7354  34.2529 13.81864816834816"}}, "geometry": {"type": "Point", "coordinates": [-89.70188012412227, 29.483336531408472]}}, {"type": "Feature", "properties": {"norad_id": 34477, "name": "COSMOS 2251 DEB", "group": "cosmos-2251-debris", "lat": -7.173864781432797, "lon": -89.06434376554454, "alt_km": 707.3118375932527, "timestamp": "2025-12-02T13:52:17.655773+00:00", "meta": {"OBJECT_NAME": "COSMOS 2251 DEB", "OBJECT_ID": "1993-036TW", "EPOCH": "2025-12-02T02:17:21.621696", "MEAN_MOTION": 14.56728064, "ECCENTRICITY": 0.0076857, "INCLINATION": 73.9783, "RA_OF_ASC_NODE": 89.782, "ARG_OF_PERICENTER": 278.8737, "MEAN_ANOMALY": 259.5607, "EPHEMERIS_TYPE": 0, "CLASSIFICATION_TYPE": "U", "NORAD_CAT_ID": 34477, "ELEMENT_SET_NO": 999, "REV_AT_EPOCH": 88470, "BSTAR": 0.001022272, "MEAN_MOTION_DOT": 4.728e-05, "MEAN_MOTION_DDOT": 0}, "tle": {"line1": "1 34477U 93036TW  25336.09538914  .00004728  00000+0  10223-2 0  9994", "line2": "2 34477  73.9783  89.7820 0076857 278.8737 259.5607 14.56728064884707"}}, "geometry": {"type": "Point", "coordinates": [-89.06434376554454, -7.173864781432797]}}, {"type": "Feature", "properties": {"norad_id": 34478, "name": "COSMOS 2251 DEB", "group": "cosmos-2251-debris", "lat": 17.843142827241234, "lon": 33.05651452548719, "alt_km": 562.1812039244678, "timestamp": "2025-12-02T13:52:17.655783+00:00", "meta": {"OBJECT_NAME": "COSMOS 2251 DEB", "OBJECT_ID": "1993-036TX", "EPOCH": "2025-12-02T06:07:06.341664", "MEAN_MOTION": 15.06660198, "ECCENTRICITY": 0.00373586, "INCLINATION": 74.0425, "RA_OF_ASC_NODE": 28.4345, "ARG_OF_PERICENTER": 251.7178, "MEAN_ANOMALY": 175.1666, "EPHEMERIS_TYPE": 0, "CLASSIFICATION_TYPE": "U", "NORAD_CAT_ID": 34478, "ELEMENT_SET_NO": 999, "REV_AT_EPOCH": 88815, "BSTAR": 0.0034182604, "MEAN_MOTION_DOT": 0.00051868, "MEAN_MOTION_DDOT": 0}, "tle": {"line1": "1 34478U 93036TX  25336.25493451  .00051868  00000+0  34183-2 0  9997", "line2": "2 34478  74.0425  28.4345 0037358 251.7178 175.1666 15.06660198888157"}}, "geometry": {"type": "Point", "coordinates": [33.05651452548719, 17.843142827241234]}}, {"type": "Feature", "properties": {"norad_id": 34481, "name": "COSMOS 2251 DEB", "group": "cosmos-2251-debris", "lat": -7.954666215134675, "lon": -105.62685317835819, "alt_km": 761.3953398397125, "timestamp": "2025-12-02T13:52:17.655794+00:00", "meta": {"OBJECT_NAME": "COSMOS 2251 DEB", "OBJECT_ID": "1993-036UA", "EPOCH": "2025-12-02T06:26:32.453952", "MEAN_MOTION": 14.32481525, "ECCENTRICITY": 0.00709701, "INCLINATION": 73.9802, "RA_OF_ASC_NODE": 72.6391, "ARG_OF_PERICENTER": 248.8767, "MEAN_ANOMALY": 144.292, "EPHEMERIS_TYPE": 0, "CLASSIFICATION_TYPE": "U", "NORAD_CAT_ID": 34481, "ELEMENT_SET_NO": 999, "REV_AT_EPOCH": 87299, "BSTAR": 0.0009596615, "MEAN_MOTION_DOT": 2.647e-05, "MEAN_MOTION_DDOT": 0}, "tle": {"line1": "1 34481U 93036UA  25336.26843118  .00002647  00000+0  95966-3 0  9999", "line2": "2 34481  73.9802  72.6391 0070970 248.8767 144.2920 14.32481525872996"}}, "geometry": {"type": "Point", "coordinates": [-105.62685317835819, -7.954666215134675]}}, {"type": "Feature", "properties": {"norad_id": 34482, "name": "COSMOS 2251 DEB", "group": "cosmos-2251-debris", "lat": 67.48901675779149, "lon": 19.580693607620095, "alt_km": 688.5389307363257, "timestamp": "2025-12-02T13:52:17.655804+00:00", "meta": {"OBJECT_NAME": "COSMOS 2251 DEB", "OBJECT_ID": "1993-036UB", "EPOCH": "2025-12-02T04:06:23.961888", "MEAN_MOTION": 14.68777099, "ECCENTRICITY": 0.00458768, "INCLINATION": 74.0376, "RA_OF_ASC_NODE": 244.0481, "ARG_OF_PERICENTER": 305.9778, "MEAN_ANOMALY": 169.4054, "EPHEMERIS_TYPE": 0, "CLASSIFICATION_TYPE": "U", "NORAD_CAT_ID": 34482, "ELEMENT_SET_NO": 999, "REV_AT_EPOCH": 88032, "BSTAR": 0.002607818, "MEAN_MOTION_DOT": 0.0001546, "MEAN_MOTION_DDOT": 0}, "tle": {"line1": "1 34482U 93036UB  25336.17111067  .00015460  00000+0  26078-2 0  9995", "line2": "2 34482  74.0376 244.0481 0045876 305.9778 169.4054 14.68777099880320"}}, "geometry": {"type": "Point", "coordinates": [19.580693607620095, 67.48901675779149]}}, {"type": "Feature", "properties": {"norad_id": 34544, "name": "COSMOS 2251 DEB", "group": "cosmos-2251-debris", "lat": -26.541937414041218, "lon": 48.76709863998201, "alt_km": 846.809244002693, "timestamp": "2025-12-02T13:52:17.655815+00:00", "meta": {"OBJECT_NAME": "COSMOS 2251 DEB", "OBJECT_ID": "1993-036UE", "EPOCH": "2025-12-02T02:58:13.056672", "MEAN_MOTION": 13.54654027, "ECCENTRICITY": 0.03847802, "INCLINATION": 73.9153, "RA_OF_ASC_NODE": 221.2162, "ARG_OF_PERICENTER": 251.6007, "MEAN_ANOMALY": 264.6648, "EPHEMERIS_TYPE": 0, "CLASSIFICATION_TYPE": "U", "NORAD_CAT_ID": 34544, "ELEMENT_SET_NO": 999, "REV_AT_EPOCH": 82738, "BSTAR": 0.00020621286, "MEAN_MOTION_DOT": 2.02e-06, "MEAN_MOTION_DDOT": 0}, "tle": {"line1": "1 34544U 93036UE  25336.12376223  .00000202  00000+0  20621-3 0  9993", "line2": "2 34544  73.9153 221.2162 0384780 251.6007 264.6648 13.54654027827388"}}, "geometry": {"type": "Point", "coordinates": [48.76709863998201, -26.541937414041218]}}]}